{"type": "FeatureCollection", "features": [ {"type": "Feature", "properties": {"norad_id": 41836, "name": "HIMAWARI-9", "group": "weather", "lat": -0.005436785947801802, "lon": 22.174034615917225, "alt_km": 35781.71910860423, "timestamp": "2025-12-25T09:48:51.930791+00:00", "meta": {"OBJECT_NAME": "HIMAWARI-9", "OBJECT_ID": "2016-064A", "EPOCH": "2025-12-23T22:52:38.784288", "MEAN_MOTION": 1.00271828, "ECCENTRICITY": 0.00016373, "INCLINATION": 0.0175, "RA_OF_ASC_NODE": 40.3208, "ARG_OF_PERICENTER": 292.8784, "MEAN_ANOMALY": 243.4785, "EPHEMERIS_TYPE": 0, "CLASSIFICATION_TYPE": "U", "NORAD_CAT_ID": 41836, "ELEMENT_SET_NO": 999, "REV_AT_EPOCH": 3345, "BSTAR": 0, "MEAN_MOTION_DOT": 0, "MEAN_MOTION_DDOT": 0}, "tle": {"line1": "1 41836U 16064A   25357.95322667  .00000000  00000+0  00000+0 0  9999", "line2": "2 41836   0.0175  40.3208 0001637 292.8784 243.4785  1.00271828 33458"}}, "geometry": {"type": "Point", "coordinates": [22.174034615917225, -0.005436785947801802]}}, {"type": "Feature", "properties": {"norad_id": 41866, "name": "GOES 16", "group": "weather", "lat": 0.05905174485446779, "lon": 136.6971258999355, "alt_km": 35794.4729952454, "timestamp": "2025-12-25T09:48:51.930803+00:00", "meta": {"OBJECT_NAME": "GOES 16", "OBJECT_ID": "2016-071A", "EPOCH": "2025-12-24T12:07:46.794144", "MEAN_MOTION": 1.00273928, "ECCENTRICITY": 0.00030223, "INCLINATION": 0.0751, "RA_OF_ASC_NODE": 101.9123, "ARG_OF_PERICENTER": 169.4084, "MEAN_ANOMALY": 259.2386, "EPHEMERIS_TYPE": 0, "CLASSIFICATION_TYPE": "U", "NORAD_CAT_ID": 41866, "ELEMENT_SET_NO": 999, "REV_AT_EPOCH": 3335, "BSTAR": 0, "MEAN_MOTION_DOT": -7e-07, "MEAN_MOTION_DDOT": 0}, "tle": {"line1": "1 41866U 16071A   25358.50540271 -.00000070  00000+0  00000+0 0  9993", "line2": "2 41866   0.0751 101.9123 0003022 169.4084 259.2386  1.00273928 33357"}}, "geometry": {"type": "Point", "coordinates": [136.6971258999355, 0.05905174485446779]}}, {"type": "Feature", "properties": {"norad_id": 41882, "name": "FENGYUN 4A", "group": "weather", "lat": -1.8368095808929235, "lon": 5.023335944429393, "alt_km": 35803.189112027256, "timestamp": "2025-12-25T09:48:51.930815+00:00", "meta": {"OBJECT_NAME": "FENGYUN 4A", "OBJECT_ID": "2016-077A", "EPOCH": "2025-12-25T00:47:51.835776", "MEAN_MOTION": 1.0026324, "ECCENTRICITY": 0.0004499, "INCLINATION": 1.8783, "RA_OF_ASC_NODE": 82.2707, "ARG_OF_PERICENTER": 142.9856, "MEAN_ANOMALY": 4.1226, "EPHEMERIS_TYPE": 0, "CLASSIFICATION_TYPE": "U", "NORAD_CAT_ID": 41882, "ELEMENT_SET_NO": 999, "REV_AT_EPOCH": 3318, "BSTAR": 0, "MEAN_MOTION_DOT": -3.37e-06, "MEAN_MOTION_DDOT": 0}, "tle": {"line1": "1 41882U 16077A   25359.03323884 -.00000337  00000+0  00000+0 0  9991", "line2": "2 41882   1.8783  82.2707 0004499 142.9856   4.1226  1.00263240 33187"}}, "geometry": {"type": "Point", "coordinates": [5.023335944429393, -1.8368095808929235]}}, {"type": "Feature", "properties": {"norad_id": 41884, "name": "CYGFM05", "group": "weather", "lat": 12.318902336288748, "lon": 126.13225655412074, "alt_km": 424.4511032112541, "timestamp": "2025-12-25T09:48:51.930827+00:00", "meta": {"OBJECT_NAME": "CYGFM05", "OBJECT_ID": "2016-078A", "EPOCH": "2025-12-25T01:23:45.430944", "MEAN_MOTION": 15.4809271, "ECCENTRICITY": 0.001058, "INCLINATION": 34.9604, "RA_OF_ASC_NODE": 326.6388, "ARG_OF_PERICENTER": 289.3009, "MEAN_ANOMALY": 70.6568, "EPHEMERIS_TYPE": 0, "CLASSIFICATION_TYPE": "U", "NORAD_CAT_ID": 41884, "ELEMENT_SET_NO": 999, "REV_AT_EPOCH": 50167, "BSTAR": 0.00037646, "MEAN_MOTION_DOT": 0.00020396, "MEAN_MOTION_DDOT": 0}, "tle": {"line1": "1 41884U 16078A   25359.05816471  .00020396  00000+0  37646-3 0  9991", "line2": "2 41884  34.9604 326.6388 0010580 289.3009  70.6568 15.48092710501672"}}, "geometry": {"type": "Point", "coordinates": [126.13225655412074, 12.318902336288748]}}, {"type": "Feature", "properties": {"norad_id": 41885, "name": "CYGFM04", "group": "weather", "lat": 9.1906524863975, "lon": 105.34997849010796, "alt_km": 417.24860743320824, "timestamp": "2025-12-25T09:48:51.930838+00:00", "meta": {"OBJECT_NAME": "CYGFM04", "OBJECT_ID": "2016-078B", "EPOCH": "2025-12-25T02:55:55.495776", "MEAN_MOTION": 15.50887952, "ECCENTRICITY": 0.0009137, "INCLINATION": 34.935, "RA_OF_ASC_NODE": 300.6357, "ARG_OF_PERICENTER": 314.4705, "MEAN_ANOMALY": 45.5269, "EPHEMERIS_TYPE": 0, "CLASSIFICATION_TYPE": "U", "NORAD_CAT_ID": 41885, "ELEMENT_SET_NO": 999, "REV_AT_EPOCH": 50186, "BSTAR": 0.00039917, "MEAN_MOTION_DOT": 0.00023881, "MEAN_MOTION_DDOT": 0}, "tle": {"line1": "1 41885U 16078B   25359.12217009  .00023881  00000+0  39917-3 0  9997", "line2": "2 41885  34.9350 300.6357 0009137 314.4705  45.5269 15.50887952501861"}}, "geometry": {"type": "Point", "coordinates": [105.34997849010796, 9.1906524863975]}}, {"type": "Feature", "properties": {"norad_id": 41886, "name": "CYGFM02", "group": "weather", "lat": -29.958423147846283, "lon": 172.54902069380165, "alt_km": 410.2402630695424, "timestamp": "2025-12-25T09:48:51.930848+00:00", "meta": {"OBJECT_NAME": "CYGFM02", "OBJECT_ID": "2016-078C", "EPOCH": "2025-12-25T02:36:29.026656", "MEAN_MOTION": 15.52304448, "ECCENTRICITY": 0.001078, "INCLINATION": 34.9438, "RA_OF_ASC_NODE": 298.8882, "ARG_OF_PERICENTER": 315.8617, "MEAN_ANOMALY": 44.1245, "EPHEMERIS_TYPE": 0, "CLASSIFICATION_TYPE": "U", "NORAD_CAT_ID": 41886, "ELEMENT_SET_NO": 999, "REV_AT_EPOCH": 50199, "BSTAR": 0.00041088, "MEAN_MOTION_DOT": 0.00025893, "MEAN_MOTION_DDOT": 0}, "tle": {"line1": "1 41886U 16078C   25359.10866929  .00025893  00000+0  41088-3 0  9994", "line2": "2 41886  34.9438 298.8882 0010780 315.8617  44.1245 15.52304448501992"}}, "geometry": {"type": "Point", "coordinates": [172.54902069380165, -29.958423147846283]}}, {"type": "Feature", "properties": {"norad_id": 41887, "name": "CYGFM01", "group": "weather", "lat": -25.692088017558326, "lon": -169.84305172559633, "alt_km": 418.0567122386901, "timestamp": "2025-12-25T09:48:51.930859+00:00", "meta": {"OBJECT_NAME": "CYGFM01", "OBJECT_ID": "2016-078D", "EPOCH": "2025-12-25T02:38:26.280096", "MEAN_MOTION": 15.48689153, "ECCENTRICITY": 0.0010368, "INCLINATION": 34.9435, "RA_OF_ASC_NODE": 328.5608, "ARG_OF_PERICENTER": 281.9479, "MEAN_ANOMALY": 78.0081, "EPHEMERIS_TYPE": 0, "CLASSIFICATION_TYPE": "U", "NORAD_CAT_ID": 41887, "ELEMENT_SET_NO": 999, "REV_AT_EPOCH": 50162, "BSTAR": 0.00040129, "MEAN_MOTION_DOT": 0.0002221, "MEAN_MOTION_DDOT": 0}, "tle": {"line1": "1 41887U 16078D   25359.11002639  .00022210  00000+0  40129-3 0  9991", "line2": "2 41887  34.9435 328.5608 0010368 281.9479  78.0081 15.48689153501626"}}, "geometry": {"type": "Point", "coordinates": [-169.84305172559633, -25.692088017558326]}}, {"type": "Feature", "properties": {"norad_id": 41888, "name": "CYGFM08", "group": "weather", "lat": -14.747561209325065, "lon": -72.69778138859753, "alt_km": 410.42597364398443, "timestamp": "2025-12-25T09:48:51.930877+00:00", "meta": {"OBJECT_NAME": "CYGFM08", "OBJECT_ID": "2016-078E", "EPOCH": "2025-12-25T02:11:54.201120", "MEAN_MOTION": 15.49927321, "ECCENTRICITY": 0.0011479, "INCLINATION": 34.9462, "RA_OF_ASC_NODE": 311.5279, "ARG_OF_PERICENTER": 305.4464, "MEAN_ANOMALY": 54.5187, "EPHEMERIS_TYPE": 0, "CLASSIFICATION_TYPE": "U", "NORAD_CAT_ID": 41888, "ELEMENT_SET_NO": 999, "REV_AT_EPOCH": 50185, "BSTAR": 0.00039057, "MEAN_MOTION_DOT": 0.00022597, "MEAN_MOTION_DDOT": 0}, "tle": {"line1": "1 41888U 16078E   25359.09159955  .00022597  00000+0  39057-3 0  9999", "line2": "2 41888  34.9462 311.5279 0011479 305.4464  54.5187 15.49927321501857"}}, "geometry": {"type": "Point", "coordinates": [-72.69778138859753, -14.747561209325065]}}, {"type": "Feature", "properties": {"norad_id": 41890, "name": "CYGFM07", "group": "weather", "lat": -6.700363909032657, "lon": -71.32833755071267, "alt_km": 409.1080498653246, "timestamp": "2025-12-25T09:48:51.930895+00:00", "meta": {"OBJECT_NAME": "CYGFM07", "OBJECT_ID": "2016-078G", "EPOCH": "2025-12-25T02:08:18.875040", "MEAN_MOTION": 15.50522977, "ECCENTRICITY": 0.0009394, "INCLINATION": 34.9478, "RA_OF_ASC_NODE": 300.4548, "ARG_OF_PERICENTER": 319.9198, "MEAN_ANOMALY": 40.083, "EPHEMERIS_TYPE": 0, "CLASSIFICATION_TYPE": "U", "NORAD_CAT_ID": 41890, "ELEMENT_SET_NO": 999, "REV_AT_EPOCH": 50187, "BSTAR": 0.00040404, "MEAN_MOTION_DOT": 0.00023861, "MEAN_MOTION_DDOT": 0}, "tle": {"line1": "1 41890U 16078G   25359.08910735  .00023861  00000+0  40404-3 0  9995", "line2": "2 41890  34.9478 300.4548 0009394 319.9198  40.0830 15.50522977501877"}}, "geometry": {"type": "Point", "coordinates": [-71.32833755071267, -6.700363909032657]}}, {"type": "Feature", "properties": {"norad_id": 41891, "name": "CYGFM03", "group": "weather", "lat": 0.9927727367021439, "lon": 118.86110183265588, "alt_km": 418.398665655689, "timestamp": "2025-12-25T09:48:51.930907+00:00", "meta": {"OBJECT_NAME": "CYGFM03", "OBJECT_ID": "2016-078H", "EPOCH": "2025-12-25T01:19:20.475840", "MEAN_MOTION": 15.504147, "ECCENTRICITY": 0.0009227, "INCLINATION": 34.9431, "RA_OF_ASC_NODE": 302.6047, "ARG_OF_PERICENTER": 306.7099, "MEAN_ANOMALY": 53.2776, "EPHEMERIS_TYPE": 0, "CLASSIFICATION_TYPE": "U", "NORAD_CAT_ID": 41891, "ELEMENT_SET_NO": 999, "REV_AT_EPOCH": 50184, "BSTAR": 0.00039736, "MEAN_MOTION_DOT": 0.00023373, "MEAN_MOTION_DDOT": 0}, "tle": {"line1": "1 41891U 16078H   25359.05509810  .00023373  00000+0  39736-3 0  9995", "line2": "2 41891  34.9431 302.6047 0009227 306.7099  53.2776 15.50414700501840"}}, "geometry": {"type": "Point", "coordinates": [118.86110183265588, 0.9927727367021439]}}]}